ONEWEB-0385             
1 49311U 21090AJ  23280.81517902  .00000102  00000+0  21947-3 0  9996
2 49311  87.9154 110.2240 0001704 100.6139 259.5186 13.20774156101314
ONEWEB-0386             
1 49312U 21090AK  23280.52899992  .00000082  00000+0  16989-3 0  9994
2 49312  87.9147 110.2928 0001800  96.3602 263.7736 13.20771247 99977
ONEWEB-0387             
1 49313U 21090AL  23280.59001586  .00000110  00000+0  23805-3 0  9993
2 49313  87.9154 110.3265 0001326  97.8847 262.2437 13.20775704 99986
ONEWEB-0388             
1 49314U 21090AM  23280.38168915 -.00000183  00000+0 -48946-3 0  9996
2 49314  87.9217 140.7862 0001746  83.1203 277.0128 13.19727338 96657
ONEWEB-0389             
1 50469U 21132A   23280.52088366  .00000145  00000+0  34083-3 0  9996
2 50469  87.9258 201.3332 0001440  84.3910 275.7385 13.17648021 88548
ONEWEB-0390             
1 50470U 21132B   23280.29519279  .00000436  00000+0  10901-2 0  9999
2 50470  87.9259 201.3846 0001432  67.4093 292.7190 13.17645863 88517
ONEWEB-0391             
1 50471U 21132C   23280.29729639  .00000122  00000+0  28228-3 0  9997
2 50471  87.9261 201.3547 0001679  80.7303 279.4019 13.17649708 88518
ONEWEB-0392             
1 50472U 21132D   23280.47871230  .00000442  00000+0  11051-2 0  9993
2 50472  87.9249 201.3550 0001402  76.8381 283.2907 13.17648884 88574
